{
    "links": {
        "self": "http://www.neowsapp.com/rest/v1/neo/2385580?api_key=iIulBulltgU6a56xZRHN4H3l9WmuAYTsLGpBGhQ2"
    },
    "id": "2385580",
    "neo_reference_id": "2385580",
    "name": "385580 (2004 XO14)",
    "designation": "385580",
    "nasa_jpl_url": "http://ssd.jpl.nasa.gov/sbdb.cgi?sstr=2385580",
    "absolute_magnitude_h": 16.1,
    "estimated_diameter": {
        "kilometers": {
            "estimated_diameter_min": 1.6016033798,
            "estimated_diameter_max": 3.5812940302
        },
        "meters": {
            "estimated_diameter_min": 1601.6033797856,
            "estimated_diameter_max": 3581.2940301941
        },
        "miles": {
            "estimated_diameter_min": 0.9951898937,
            "estimated_diameter_max": 2.2253122528
        },
        "feet": {
            "estimated_diameter_min": 5254.6044325359,
            "estimated_diameter_max": 11749.652706022
        }
    },
    "is_potentially_hazardous_asteroid": false,
    "close_approach_data": [
        {
            "close_approach_date": "1969-12-22",
            "close_approach_date_full": "1969-Dec-22 07:11",
            "epoch_date_close_approach": -838140000,
            "relative_velocity": {
                "kilometers_per_second": "14.338345782",
                "kilometers_per_hour": "51618.044815146",
                "miles_per_hour": "32073.4456797222"
            },
            "miss_distance": {
                "astronomical": "0.474866452",
                "lunar": "184.723049828",
                "kilometers": "71039009.75365724",
                "miles": "44141593.788020312"
            },
            "orbiting_body": "Earth"
        },
        {
            "close_approach_date": "2017-12-24",
            "close_approach_date_full": "2017-Dec-24 01:21",
            "epoch_date_close_approach": 1514078460000,
            "relative_velocity": {
                "kilometers_per_second": "12.9033775746",
                "kilometers_per_hour": "46452.1592687119",
                "miles_per_hour": "28863.5652967171"
            },
            "miss_distance": {
                "astronomical": "0.4727681051",
                "lunar": "183.9067928839",
                "kilometers": "70725101.526896137",
                "miles": "43946540.2606632106"
            },
            "orbiting_body": "Earth"
        },
        {
            "close_approach_date": "2126-12-23",
            "close_approach_date_full": "2126-Dec-23 20:14",
            "epoch_date_close_approach": 4953730440000,
            "relative_velocity": {
                "kilometers_per_second": "15.151504428",
                "kilometers_per_hour": "54545.4159406963",
                "miles_per_hour": "33892.4002549288"
            },
            "miss_distance": {
                "astronomical": "0.4653044188",
                "lunar": "181.0034189132",
                "kilometers": "69608549.954067956",
                "miles": "43252747.2849155528"
            },
            "orbiting_body": "Earth"
        },
        {
            "close_approach_date": "2174-12-25",
            "close_approach_date_full": "2174-Dec-25 10:46",
            "epoch_date_close_approach": 6468633960000,
            "relative_velocity": {
                "kilometers_per_second": "13.2321030269",
                "kilometers_per_hour": "47635.5708968911",
                "miles_per_hour": "29598.8912609044"
            },
            "miss_distance": {
                "astronomical": "0.4647477409",
                "lunar": "180.7868712101",
                "kilometers": "69525272.125951883",
                "miles": "43201000.8420386654"
            },
            "orbiting_body": "Earth"
        }
    ],
    "orbital_data": {
        "orbit_id": "143",
        "orbit_determination_date": "2020-06-20 06:29:31",
        "first_observation_date": "1982-07-20",
        "last_observation_date": "2020-05-17",
        "data_arc_in_days": 13816,
        "observations_used": 675,
        "orbit_uncertainty": "0",
        "minimum_orbit_intersection": ".466683",
        "jupiter_tisserand_invariant": "3.022",
        "epoch_osculation": "2459000.5",
        "eccentricity": ".5543488580814865",
        "semi_major_axis": "2.66936000834969",
        "inclination": "25.93048150324878",
        "ascending_node_longitude": "129.4868648921109",
        "orbital_period": "1592.975701805678",
        "perihelion_distance": "1.189603335912652",
        "perihelion_argument": "276.2879158091355",
        "aphelion_distance": "4.149116680786728",
        "perihelion_time": "2459649.867588252680",
        "mean_anomaly": "213.2480241186491",
        "mean_motion": ".2259921476466533",
        "equinox": "J2000",
        "orbit_class": {
            "orbit_class_type": "AMO",
            "orbit_class_description": "Near-Earth asteroid orbits similar to that of 1221 Amor",
            "orbit_class_range": "1.017 AU < q (perihelion) < 1.3 AU"
        }
    },
    "is_sentry_object": false
}